{"fetched_at":"2026-07-19T17:31:11.372Z","source":"https://celestrak.org/NORAD/elements/gp.php?GROUP=planet&FORMAT=JSON","constellation":"superdove","records":[{"OBJECT_NAME":"FLOCK 4H-34","OBJECT_ID":"2025-276BZ","EPOCH":"2026-07-19T03:57:29.595168","CLASSIFICATION_TYPE":"U","MEAN_MOTION":15.20868782,"ECCENTRICITY":0.00029578,"INCLINATION":97.4222,"RA_OF_ASC_NODE":273.5186,"ARG_OF_PERICENTER":159.6601,"MEAN_ANOMALY":200.4752,"EPHEMERIS_TYPE":0,"NORAD_CAT_ID":66737,"ELEMENT_SET_NO":999,"REV_AT_EPOCH":3454,"BSTAR":0.00016670752,"MEAN_MOTION_DOT":0.00003614,"MEAN_MOTION_DDOT":0},{"OBJECT_NAME":"FLOCK 4H-35","OBJECT_ID":"2025-276CA","EPOCH":"2026-07-19T04:56:52.245600","CLASSIFICATION_TYPE":"U","MEAN_MOTION":15.20983379,"ECCENTRICITY":0.00029014,"INCLINATION":97.418,"RA_OF_ASC_NODE":273.4958,"ARG_OF_PERICENTER":144.0341,"MEAN_ANOMALY":216.109,"EPHEMERIS_TYPE":0,"NORAD_CAT_ID":66738,"ELEMENT_SET_NO":999,"REV_AT_EPOCH":3459,"BSTAR":0.00016060536,"MEAN_MOTION_DOT":0.00003491,"MEAN_MOTION_DDOT":0},{"OBJECT_NAME":"FLOCK 4H-36","OBJECT_ID":"2025-276CB","EPOCH":"2026-07-19T04:18:30.763872","CLASSIFICATION_TYPE":"U","MEAN_MOTION":15.20748296,"ECCENTRICITY":0.00028451,"INCLINATION":97.423,"RA_OF_ASC_NODE":273.5256,"ARG_OF_PERICENTER":170.7711,"MEAN_ANOMALY":189.3577,"EPHEMERIS_TYPE":0,"NORAD_CAT_ID":66739,"ELEMENT_SET_NO":999,"REV_AT_EPOCH":3529,"BSTAR":0.00015415156,"MEAN_MOTION_DOT":0.00003324,"MEAN_MOTION_DDOT":0}]}
