FLOCK 4H-34             
1 66737U 25276BZ  26200.16492587  .00003614  00000+0  16671-3 0  9990
2 66737  97.4222 273.5186 0002957 159.6601 200.4752 15.20868782 34543
FLOCK 4H-35             
1 66738U 25276CA  26200.20616025  .00003491  00000+0  16061-3 0  9997
2 66738  97.4180 273.4958 0002901 144.0341 216.1090 15.20983379 34595
FLOCK 4H-36             
1 66739U 25276CB  26200.17952273  .00003324  00000+0  15415-3 0  9999
2 66739  97.4230 273.5256 0002845 170.7711 189.3577 15.20748296 35294
